ISS (ZARYA)             
1 25544U 98067A   26077.80687811  .00008636  00000+0  16833-3 0  9997
2 25544  51.6341  27.2872 0006207 206.1038 153.9638 15.48363739557747
POISK                   
1 36086U 09060A   26077.80687811  .00008636  00000+0  16833-3 0  9995
2 36086  51.6341  27.2872 0006207 206.1038 153.9638 15.48363739557504
CSS (TIANHE)            
1 48274U 21035A   26077.67299090  .00021288  00000+0  24802-3 0  9999
2 48274  41.4668 153.4828 0005990 328.6686  31.3796 15.61143660279010
ISS (NAUKA)             
1 49044U 21066A   26077.80687811  .00008636  00000+0  16833-3 0  9993
2 49044  51.6341  27.2872 0006207 206.1038 153.9638 15.48363739557546
CSS (WENTIAN)           
1 53239U 22085A   26077.67299090  .00021288  00000+0  24802-3 0  9992
2 53239  41.4668 153.4828 0005990 328.6686  31.3796 15.61143660279017
CSS (MENGTIAN)          
1 54216U 22143A   26077.67299090  .00021288  00000+0  24802-3 0  9993
2 54216  41.4668 153.4828 0005990 328.6686  31.3796 15.61143660279013
TIANZHOU-9              
1 64786U 25149A   26077.67299090  .00021288  00000+0  24802-3 0  9995
2 64786  41.4668 153.4828 0005990 328.6686  31.3796 15.61143660279016
PROGRESS-MS 32          
1 65586U 25204A   26077.35508505  .00007746  00000+0  15190-3 0  9998
2 65586  51.6340  29.5200 0006240 204.1942 155.8754 15.48355497554508
YOTSUBA-KULOVER         
1 65941U 98067XN  26077.79755730  .00235565  00000+0  96147-3 0  9995
2 65941  51.6214   9.8960 0004992 136.7695 223.3701 15.84907628 24946
E-KAGAKU-1              
1 65943U 98067XQ  26077.80449247  .00224802  00000+0  94143-3 0  9998
2 65943  51.6240   9.9637 0005606 138.1678 221.9754 15.84394760 24948
