CCSDS_OMM_VERS = 2.0
CREATION_DATE  = 
ORIGINATOR     = 

OBJECT_NAME    = ISS (ZARYA)
OBJECT_ID      = 1998-067A
CENTER_NAME    = EARTH
REF_FRAME      = TEME
TIME_SYSTEM    = UTC
MEAN_ELEMENT_THEORY = SGP/SGP4

EPOCH          = 2026-03-18T19:21:54.268704
MEAN_MOTION    = 15.48363739
ECCENTRICITY   = .0006207
INCLINATION    = 51.6341
RA_OF_ASC_NODE = 27.2872
ARG_OF_PERICENTER = 206.1038
MEAN_ANOMALY   = 153.9638

EPHEMERIS_TYPE = 0
CLASSIFICATION_TYPE = U
NORAD_CAT_ID   = 25544
ELEMENT_SET_NO = 999
REV_AT_EPOCH   = 55774
BSTAR          = .16833E-3
MEAN_MOTION_DOT = .8636E-4
MEAN_MOTION_DDOT = 0

CCSDS_OMM_VERS = 2.0
CREATION_DATE  = 
ORIGINATOR     = 

OBJECT_NAME    = POISK
OBJECT_ID      = 2009-060A
CENTER_NAME    = EARTH
REF_FRAME      = TEME
TIME_SYSTEM    = UTC
MEAN_ELEMENT_THEORY = SGP/SGP4

EPOCH          = 2026-03-18T19:21:54.268704
MEAN_MOTION    = 15.48363739
ECCENTRICITY   = .0006207
INCLINATION    = 51.6341
RA_OF_ASC_NODE = 27.2872
ARG_OF_PERICENTER = 206.1038
MEAN_ANOMALY   = 153.9638

EPHEMERIS_TYPE = 0
CLASSIFICATION_TYPE = U
NORAD_CAT_ID   = 36086
ELEMENT_SET_NO = 999
REV_AT_EPOCH   = 55750
BSTAR          = .16833E-3
MEAN_MOTION_DOT = .8636E-4
MEAN_MOTION_DDOT = 0

CCSDS_OMM_VERS = 2.0
CREATION_DATE  = 
ORIGINATOR     = 

OBJECT_NAME    = CSS (TIANHE)
OBJECT_ID      = 2021-035A
CENTER_NAME    = EARTH
REF_FRAME      = TEME
TIME_SYSTEM    = UTC
MEAN_ELEMENT_THEORY = SGP/SGP4

EPOCH          = 2026-03-18T16:09:06.413760
MEAN_MOTION    = 15.61143660
ECCENTRICITY   = .000599
INCLINATION    = 41.4668
RA_OF_ASC_NODE = 153.4828
ARG_OF_PERICENTER = 328.6686
MEAN_ANOMALY   = 31.3796

EPHEMERIS_TYPE = 0
CLASSIFICATION_TYPE = U
NORAD_CAT_ID   = 48274
ELEMENT_SET_NO = 999
REV_AT_EPOCH   = 27901
BSTAR          = .24802E-3
MEAN_MOTION_DOT = .21288E-3
MEAN_MOTION_DDOT = 0

CCSDS_OMM_VERS = 2.0
CREATION_DATE  = 
ORIGINATOR     = 

OBJECT_NAME    = ISS (NAUKA)
OBJECT_ID      = 2021-066A
CENTER_NAME    = EARTH
REF_FRAME      = TEME
TIME_SYSTEM    = UTC
MEAN_ELEMENT_THEORY = SGP/SGP4

EPOCH          = 2026-03-18T19:21:54.268704
MEAN_MOTION    = 15.48363739
ECCENTRICITY   = .0006207
INCLINATION    = 51.6341
RA_OF_ASC_NODE = 27.2872
ARG_OF_PERICENTER = 206.1038
MEAN_ANOMALY   = 153.9638

EPHEMERIS_TYPE = 0
CLASSIFICATION_TYPE = U
NORAD_CAT_ID   = 49044
ELEMENT_SET_NO = 999
REV_AT_EPOCH   = 55754
BSTAR          = .16833E-3
MEAN_MOTION_DOT = .8636E-4
MEAN_MOTION_DDOT = 0

CCSDS_OMM_VERS = 2.0
CREATION_DATE  = 
ORIGINATOR     = 

OBJECT_NAME    = CSS (WENTIAN)
OBJECT_ID      = 2022-085A
CENTER_NAME    = EARTH
REF_FRAME      = TEME
TIME_SYSTEM    = UTC
MEAN_ELEMENT_THEORY = SGP/SGP4

EPOCH          = 2026-03-18T16:09:06.413760
MEAN_MOTION    = 15.61143660
ECCENTRICITY   = .000599
INCLINATION    = 41.4668
RA_OF_ASC_NODE = 153.4828
ARG_OF_PERICENTER = 328.6686
MEAN_ANOMALY   = 31.3796

EPHEMERIS_TYPE = 0
CLASSIFICATION_TYPE = U
NORAD_CAT_ID   = 53239
ELEMENT_SET_NO = 999
REV_AT_EPOCH   = 27901
BSTAR          = .24802E-3
MEAN_MOTION_DOT = .21288E-3
MEAN_MOTION_DDOT = 0

CCSDS_OMM_VERS = 2.0
CREATION_DATE  = 
ORIGINATOR     = 

OBJECT_NAME    = CSS (MENGTIAN)
OBJECT_ID      = 2022-143A
CENTER_NAME    = EARTH
REF_FRAME      = TEME
TIME_SYSTEM    = UTC
MEAN_ELEMENT_THEORY = SGP/SGP4

EPOCH          = 2026-03-18T16:09:06.413760
MEAN_MOTION    = 15.61143660
ECCENTRICITY   = .000599
INCLINATION    = 41.4668
RA_OF_ASC_NODE = 153.4828
ARG_OF_PERICENTER = 328.6686
MEAN_ANOMALY   = 31.3796

EPHEMERIS_TYPE = 0
CLASSIFICATION_TYPE = U
NORAD_CAT_ID   = 54216
ELEMENT_SET_NO = 999
REV_AT_EPOCH   = 27901
BSTAR          = .24802E-3
MEAN_MOTION_DOT = .21288E-3
MEAN_MOTION_DDOT = 0

CCSDS_OMM_VERS = 2.0
CREATION_DATE  = 
ORIGINATOR     = 

OBJECT_NAME    = TIANZHOU-9
OBJECT_ID      = 2025-149A
CENTER_NAME    = EARTH
REF_FRAME      = TEME
TIME_SYSTEM    = UTC
MEAN_ELEMENT_THEORY = SGP/SGP4

EPOCH          = 2026-03-18T16:09:06.413760
MEAN_MOTION    = 15.61143660
ECCENTRICITY   = .000599
INCLINATION    = 41.4668
RA_OF_ASC_NODE = 153.4828
ARG_OF_PERICENTER = 328.6686
MEAN_ANOMALY   = 31.3796

EPHEMERIS_TYPE = 0
CLASSIFICATION_TYPE = U
NORAD_CAT_ID   = 64786
ELEMENT_SET_NO = 999
REV_AT_EPOCH   = 27901
BSTAR          = .24802E-3
MEAN_MOTION_DOT = .21288E-3
MEAN_MOTION_DDOT = 0

CCSDS_OMM_VERS = 2.0
CREATION_DATE  = 
ORIGINATOR     = 

OBJECT_NAME    = PROGRESS-MS 32
OBJECT_ID      = 2025-204A
CENTER_NAME    = EARTH
REF_FRAME      = TEME
TIME_SYSTEM    = UTC
MEAN_ELEMENT_THEORY = SGP/SGP4

EPOCH          = 2026-03-18T08:31:19.348320
MEAN_MOTION    = 15.48355497
ECCENTRICITY   = .00062405
INCLINATION    = 51.6340
RA_OF_ASC_NODE = 29.5200
ARG_OF_PERICENTER = 204.1942
MEAN_ANOMALY   = 155.8754

EPHEMERIS_TYPE = 0
CLASSIFICATION_TYPE = U
NORAD_CAT_ID   = 65586
ELEMENT_SET_NO = 999
REV_AT_EPOCH   = 55450
BSTAR          = .1519049E-3
MEAN_MOTION_DOT = .7746E-4
MEAN_MOTION_DDOT = 0

CCSDS_OMM_VERS = 2.0
CREATION_DATE  = 
ORIGINATOR     = 

OBJECT_NAME    = YOTSUBA-KULOVER
OBJECT_ID      = 1998-067XN
CENTER_NAME    = EARTH
REF_FRAME      = TEME
TIME_SYSTEM    = UTC
MEAN_ELEMENT_THEORY = SGP/SGP4

EPOCH          = 2026-03-18T19:08:28.950720
MEAN_MOTION    = 15.84907628
ECCENTRICITY   = .0004992
INCLINATION    = 51.6214
RA_OF_ASC_NODE = 9.8960
ARG_OF_PERICENTER = 136.7695
MEAN_ANOMALY   = 223.3701

EPHEMERIS_TYPE = 0
CLASSIFICATION_TYPE = U
NORAD_CAT_ID   = 65941
ELEMENT_SET_NO = 999
REV_AT_EPOCH   = 2494
BSTAR          = .96147E-3
MEAN_MOTION_DOT = .235565E-2
MEAN_MOTION_DDOT = 0

CCSDS_OMM_VERS = 2.0
CREATION_DATE  = 
ORIGINATOR     = 

OBJECT_NAME    = E-KAGAKU-1
OBJECT_ID      = 1998-067XQ
CENTER_NAME    = EARTH
REF_FRAME      = TEME
TIME_SYSTEM    = UTC
MEAN_ELEMENT_THEORY = SGP/SGP4

EPOCH          = 2026-03-18T19:18:28.149408
MEAN_MOTION    = 15.84394760
ECCENTRICITY   = .0005606
INCLINATION    = 51.6240
RA_OF_ASC_NODE = 9.9637
ARG_OF_PERICENTER = 138.1678
MEAN_ANOMALY   = 221.9754

EPHEMERIS_TYPE = 0
CLASSIFICATION_TYPE = U
NORAD_CAT_ID   = 65943
ELEMENT_SET_NO = 999
REV_AT_EPOCH   = 2494
BSTAR          = .94143E-3
MEAN_MOTION_DOT = .224802E-2
MEAN_MOTION_DDOT = 0

